#dP2022 12  9  0  0  0.00000000      96 __u+U ITR14 FIT  IAC
## 2239 432000.00000000   900.00000000 59922 0.0000000000000
+  127   C01C02C03C04C05C06C07C08C09C10C11C12C13C14C16C19C20
+        C21C22C23C24C25C26C27C28C29C30C32C33C34C35C36C37C38
+        C39C40C41C42C43C44C45C46C60E01E02E03E04E05E07E08E09
+        E10E12E13E14E15E18E19E21E24E25E26E27E30E31E33E34E36
+        G01G02G03G04G05G06G07G08G09G10G11G12G13G14G15G16G17
+        G18G19G20G21G22G23G24G25G26G27G29G30G31G32J02J03J04
+        J07R01R02R03R04R05R06R07R08R09R10R11R12R13R14R15R17
+        R18R19R20R21R22R23R24R25  0  0  0  0  0  0  0  0  0
++        17 17 17 17 17  0  9 10  8  9  9  9  9  9  9  7  7
++         7  7  7  7  7  7  7  7  7  7  7  7  7  7  7  8  8
++         8  8  8  7  7  7  7  7 17  5  4  4  4  4  4  5  4
++         4  4  4  4  4  5  4  4  4  4  5  4  4  5  5  4  4
++         4  4  4  4  4  4  4  4  4  4  4  4  4  4  4  4  4
++         4  4  4  4  4  4  4  4  4  4  4  4  4  3  8  8  9
++        17  7  6  6  6  6 15  6  6  6 15  6  6  7  6  6  6
++         6  8  8  6  8 15  6  8  0  0  0  0  0  0  0  0  0
%c M  cc GPS ccc cccc cccc cccc cccc ccccc ccccc ccccc ccccc
%c cc cc ccc ccc cccc cccc cccc cccc ccccc ccccc ccccc ccccc
%f  0.0000000  0.000000000  0.00000000000  0.000000000000000
%f  0.0000000  0.000000000  0.00000000000  0.000000000000000
%i    0    0    0    0      0      0      0      0         0
%i    0    0    0    0      0      0      0      0         0
/* INFORMATION & ANALYSIS CENTER (IAC)            RAPID DATA
/* S/V CLOCKS ARE ALIGNED TO GNSS TIME                      
/* G:C1WC2W R:C1PC2P E:C1XC5X C:C2IC6I J:C1CC2S             
/* PCV:IGS20_2233 OL/AL:FES2004  NONE     YN ORB:CoN CLK:CoN
*  2022 12 09  4 45  0.00000000
PC01 -34376.277916  24398.815810   -534.628525    931.122316
PC02   4505.845509  41945.051175    467.000800    239.927040
PC03 -14714.503059  39545.428647   -242.315835    -80.313910
PC04 -39628.162734  14388.499606   -633.702737   -140.714201
PC05  21927.732700  36047.376866    976.644997    -24.890781
PC06      0.000000      0.000000      0.000000 999999.999999
PC07 -16594.156484  34574.026457 -17655.541526    101.361638
PC08  -3814.747160  39262.943778 -14628.743741    521.019577
PC09   4948.838729  28179.331722  31507.852994   -787.305228
PC10 -10159.551063  34304.090917 -22366.490428     54.737186
PC11 -25316.911425 -11183.294716   3762.818404   -246.439501
PC12 -12093.693278 -16908.771049  18669.161381    337.467591
PC13   1238.249343  41306.551368  -7375.555096    153.573812
PC14 -17484.081075  -3744.725147 -21425.185987    248.694109
PC16  -8510.767787  22772.034387  34643.458819    104.642274
PC19  21971.161602  -5331.033744  16369.820755   -905.458031
PC20  11476.050604  10803.348639  23035.162079    811.876466
PC21   6759.899373 -21613.316937 -16288.223008   -928.617774
PC22  20290.565816 -19144.544712   -120.573773   -750.015936
PC23 -11316.425149  15602.497341  20175.538082   -872.353155
PC24 -12393.465707 -23117.909252   9555.557695   -699.396286
PC25 -17078.386808  -3731.652731  21745.674438     36.753751
PC26  -2311.846290 -27124.251841  -6245.928063    -47.262141
PC27   2553.169010  16892.294673 -22081.955352     63.467171
PC28 -16458.925528   9621.130462 -20371.892837     45.144541
PC29  27082.191659   3133.799185   5958.370766     51.269818
PC30  20714.341845  14366.873922 -11993.197007      1.168373
PC32  -6670.599502  21707.707195  16229.641598   -689.122397
PC33 -21927.199060   5376.757103 -16408.999873   -897.007414
PC34 -21530.642605 -13935.735037  10968.564701     57.036690
PC35  17627.549707  -9294.471176  19543.745105    124.755075
PC36  17016.759329   4828.968383 -21562.748448   -781.219532
PC37    721.023979  26858.624844   7491.020188   -888.739511
PC38  -8531.924179  35734.950398 -20509.488698     43.686432
PC39 -12247.388638  21050.254655  34425.298074     -1.035082
PC40 -24883.173991  30015.233534 -16322.096209     -9.805692
PC41 -20455.684512  18973.878991   -402.720474   -360.632471
PC42 -10491.207577 -11787.357575 -22977.915147   -816.004659
PC43 -27151.685578  -3717.501626  -5212.200317     29.159669
PC44  -2857.748102 -16871.397457  22031.188576    139.249839
PC45  11002.059930 -15973.671334 -20078.171207    -32.408059
PC46  13189.768255  21869.587187 -11198.947739    -18.351413
PC60   7293.184494  41505.189565  -1104.843836     -0.731548
PE01   8872.936077  18941.916625 -20937.774443   -573.306662
PE02  -9038.859124 -18727.987243  21072.116262      7.452740
PE03 -18439.019674 -10750.635210 -20520.997452   -627.967890
PE04  28953.283537  -2196.397143   5761.568591    -10.137095
PE05   3179.635549 -17669.950347 -23538.745712   -116.867965
PE07 -22623.328808  14178.556313  12781.844572     -5.697966
PE08 -28935.558082   2264.444373  -5835.864588      0.338186
PE09  22744.968846 -14075.104363 -12673.616827   -757.476826
PE10  18568.452201  -1713.040669  22984.918287   -496.493063
PE12  22507.458373   7624.048728  17660.416017   -321.907808
PE13 -11768.847656  10871.144323 -24879.397244    430.425178
PE14 -14012.289364 -13266.041331  17237.816715     79.363946
PE15 -22548.189565  -7899.888869 -17462.734139    702.162413
PE18   3803.551849  19444.572237 -23547.666657   -649.789742
PE19  15885.027768  12113.248265  21843.822314  -3791.103787
PE21  -3910.973554  28418.813050  -7277.239655   -499.275889
PE24  15961.990099 -21690.040164 -12333.119385   -991.584692
PE25   4134.577460 -28472.660854   6989.629446   -594.513447
PE26   6420.649244  23402.454135 -16933.517143  -1886.825372
PE27 -15493.781940  22406.842064  11560.799308   -458.760505
PE30 -17757.365622   2337.182035  23554.522104  -1063.134613
PE31  17836.281637  -3289.893885 -23388.206452   -510.191815
PE33  19952.152740  21866.534902   -185.567989   -455.573285
PE34 -20068.479541 -21768.242676     29.658518    -18.681376
PE36  -5776.118456 -23061.095500  17641.962535   -472.646115
PG01  19768.766900  10814.055332  14021.268276    240.296585
PG02 -20201.060318  -6413.437496 -15245.003549   -633.973598
PG03  15141.128012   1508.585342  21636.284782   -375.202225
PG04  25977.219701   1203.801671   5678.850851    -71.982565
PG05  -9013.674088 -15546.013750 -19690.050130   -107.363553
PG06  -1553.490029 -20359.976169  17007.646899    536.299401
PG07  15553.019023  -4181.360715 -20771.550213    276.985187
PG08  20478.317979   7522.661654 -15447.828776    -97.751893
PG09  24823.498472  -7909.633475  -5372.983957   -256.384141
PG10 -11241.589132  23734.774274  -2404.397975    -15.301610
PG11 -11008.840253 -23349.886683   6339.993582    -53.538700
PG12 -14774.950037  -3506.386766  21511.245907   -313.743660
PG13 -13240.370855 -13115.407038 -19172.150228    438.749296
PG14  13465.108768 -22359.916443  -4555.996873    -71.144118
PG15 -21301.585041  -5866.218990 -15385.700027     -5.656671
PG16   4053.738095  19238.934336 -17919.157753   -526.371441
PG17  16260.464854 -12872.173365  17082.673703    684.448363
PG18 -13537.451491   6747.109034 -21840.002052    -52.034301
PG19   4368.957881 -14682.550160  21434.742987    248.056164
PG20  -2158.571566 -24486.489359 -10322.598226    464.792925
PG21  21062.769250  15614.885671   6913.716536    154.277994
PG22   -846.687769  15435.637273  22015.885101    380.939091
PG23 -15666.377477  17075.622491 -12852.575382     -0.201208
PG24 -21403.910692 -12676.897659   9536.205556     24.101857
PG25 -17047.200930   8112.578263  18266.596731    400.305778
PG26  -2478.304665  25184.288562  -7573.252969    237.960550
PG27   9690.888229  13266.406863 -21171.742541    158.045175
PG29 -26054.177054   4087.884027  -3534.972715   -572.747260
PG30   6596.449518 -15827.046584 -20133.088836   -535.691820
PG31   2216.848520  21195.346469  15392.316359   -202.696785
PG32 -12590.854651  14799.901521  18170.137594   -323.284284
PJ02 -31081.679985  26107.072723  16530.940433     -0.275369
PJ03 -25172.700043  17686.716450 -24158.970252     -6.266702
PJ04 -25493.481338  33566.234717   1396.138717    114.717656
PJ07 -25368.042326  33669.329889     19.683099      0.057622
PR01   5346.960720   9675.591715  22984.332733     19.231130
PR02  19659.520007  -3513.475747  15950.863594    -23.410148
PR03  21444.691406 -13872.955904   -260.931161     68.743208
PR04  11479.263297 -16119.772031 -16083.276261    167.893629
PR05  -4757.852159  -9720.726260 -23093.044446    104.231937
PR06 -19993.821484   4837.100172 -15079.410721    -84.336118
PR07 -21149.524978  14161.961732   1175.079268     45.743053
PR08 -11137.876596  16224.825139  16259.187587    -68.472296
PR09 -11370.676422  -5652.335014  22126.464522     91.995792
PR10  -9276.856601  11435.997652  20795.506268    -88.533975
PR11  -1983.412476  24357.795211   7339.626432     16.083337
PR12   6601.340639  21825.914659 -11390.244305     23.493828
PR13  10943.549285   7597.390135 -21768.900044    -29.754182
PR14   8932.849250 -13137.867498 -19943.782314     24.083836
PR15   1756.877791 -24663.694365  -6255.161833     92.451942
PR17  15553.543954  -2162.006671  20102.550068    585.291684
PR18    146.347222 -11531.000945  22768.095166     55.898795
PR19 -14020.626719 -15510.450517  14623.998210   -213.882174
PR20 -22688.382471 -10292.516768  -5369.238660    -83.610478
PR21 -14321.110230   3036.002300 -20890.114051   -356.037791
PR22     79.318750  12240.915488 -22349.090994     19.478421
PR23  17927.160163  14970.489856 -10254.999248    -64.907246
PR24  23039.885997   9133.551375   6020.695005    131.557747
PR25 -16120.283146   1298.987700 -19723.979896     48.410889
EOF
